[{"OBJECT_NAME":"IRIDIUM 168","OBJECT_ID":"2019-002C","EPOCH":"2026-03-09T22:03:03.105216","MEAN_MOTION":14.34216679,"ECCENTRICITY":0.00021737,"INCLINATION":86.3975,"RA_OF_ASC_NODE":35.1435,"ARG_OF_PERICENTER":86.4602,"MEAN_ANOMALY":273.6843,"EPHEMERIS_TYPE":0,"CLASSIFICATION_TYPE":"U","NORAD_CAT_ID":43924,"ELEMENT_SET_NO":999,"REV_AT_EPOCH":37474,"BSTAR":0.00012475836,"MEAN_MOTION_DOT":3.69e-6,"MEAN_MOTION_DDOT":0},{"OBJECT_NAME":"CZ-2D DEB","OBJECT_ID":"2011-068H","EPOCH":"2026-03-09T13:11:45.286944","MEAN_MOTION":14.24365467,"ECCENTRICITY":0.01381735,"INCLINATION":98.8884,"RA_OF_ASC_NODE":93.7685,"ARG_OF_PERICENTER":356.0631,"MEAN_ANOMALY":157.3962,"EPHEMERIS_TYPE":0,"CLASSIFICATION_TYPE":"U","NORAD_CAT_ID":38180,"ELEMENT_SET_NO":999,"REV_AT_EPOCH":73705,"BSTAR":0.00059381378,"MEAN_MOTION_DOT":1.469e-5,"MEAN_MOTION_DDOT":0}]
